CCSDS_OMM_VERS = 2.0
CREATION_DATE  = 
ORIGINATOR     = 

OBJECT_NAME    = STARLINK-35735
OBJECT_ID      = 2025-244AB
CENTER_NAME    = EARTH
REF_FRAME      = TEME
TIME_SYSTEM    = UTC
MEAN_ELEMENT_THEORY = SGP/SGP4

EPOCH          = 2025-11-23T13:15:42.581952
MEAN_MOTION    = 15.49341756
ECCENTRICITY   = .0001315
INCLINATION    = 53.1595
RA_OF_ASC_NODE = 6.1521
ARG_OF_PERICENTER = 97.2181
MEAN_ANOMALY   = 262.8977

EPHEMERIS_TYPE = 0
CLASSIFICATION_TYPE = U
NORAD_CAT_ID   = 66231
ELEMENT_SET_NO = 999
REV_AT_EPOCH   = 536
BSTAR          = .11309E-2
MEAN_MOTION_DOT = .63031E-3
MEAN_MOTION_DDOT = 0

CCSDS_OMM_VERS = 2.0
CREATION_DATE  = 
ORIGINATOR     = 

OBJECT_NAME    = STARLINK-35753
OBJECT_ID      = 2025-244AC
CENTER_NAME    = EARTH
REF_FRAME      = TEME
TIME_SYSTEM    = UTC
MEAN_ELEMENT_THEORY = SGP/SGP4

EPOCH          = 2025-11-23T13:15:12.993408
MEAN_MOTION    = 15.49329953
ECCENTRICITY   = .0001632
INCLINATION    = 53.1595
RA_OF_ASC_NODE = 6.1502
ARG_OF_PERICENTER = 82.0264
MEAN_ANOMALY   = 278.0930

EPHEMERIS_TYPE = 0
CLASSIFICATION_TYPE = U
NORAD_CAT_ID   = 66232
ELEMENT_SET_NO = 999
REV_AT_EPOCH   = 536
BSTAR          = .10975E-2
MEAN_MOTION_DOT = .61114E-3
MEAN_MOTION_DDOT = 0

CCSDS_OMM_VERS = 2.0
CREATION_DATE  = 
ORIGINATOR     = 

OBJECT_NAME    = STARLINK-35626
OBJECT_ID      = 2025-244AD
CENTER_NAME    = EARTH
REF_FRAME      = TEME
TIME_SYSTEM    = UTC
MEAN_ELEMENT_THEORY = SGP/SGP4

EPOCH          = 2025-11-23T13:14:43.227744
MEAN_MOTION    = 15.49345378
ECCENTRICITY   = .0002041
INCLINATION    = 53.1597
RA_OF_ASC_NODE = 6.1480
ARG_OF_PERICENTER = 56.0974
MEAN_ANOMALY   = 304.0229

EPHEMERIS_TYPE = 0
CLASSIFICATION_TYPE = U
NORAD_CAT_ID   = 66233
ELEMENT_SET_NO = 999
REV_AT_EPOCH   = 536
BSTAR          = .11296E-2
MEAN_MOTION_DOT = .62966E-3
MEAN_MOTION_DDOT = 0

CCSDS_OMM_VERS = 2.0
CREATION_DATE  = 
ORIGINATOR     = 

OBJECT_NAME    = STARLINK-35537
OBJECT_ID      = 2025-245A
CENTER_NAME    = EARTH
REF_FRAME      = TEME
TIME_SYSTEM    = UTC
MEAN_ELEMENT_THEORY = SGP/SGP4

EPOCH          = 2025-11-24T04:00:01.998720
MEAN_MOTION    = 15.39554786
ECCENTRICITY   = .0001448
INCLINATION    = 53.1593
RA_OF_ASC_NODE = 57.2036
ARG_OF_PERICENTER = 89.6149
MEAN_ANOMALY   = 353.2556

EPHEMERIS_TYPE = 0
CLASSIFICATION_TYPE = U
NORAD_CAT_ID   = 66234
ELEMENT_SET_NO = 999
REV_AT_EPOCH   = 511
BSTAR          = .22827E-2
MEAN_MOTION_DOT = .91814E-3
MEAN_MOTION_DDOT = 0

CCSDS_OMM_VERS = 2.0
CREATION_DATE  = 
ORIGINATOR     = 

OBJECT_NAME    = STARLINK-35541
OBJECT_ID      = 2025-245B
CENTER_NAME    = EARTH
REF_FRAME      = TEME
TIME_SYSTEM    = UTC
MEAN_ELEMENT_THEORY = SGP/SGP4

EPOCH          = 2025-11-24T04:00:01.998720
MEAN_MOTION    = 15.39554148
ECCENTRICITY   = .0001485
INCLINATION    = 53.1595
RA_OF_ASC_NODE = 57.1993
ARG_OF_PERICENTER = 93.9547
MEAN_ANOMALY   = 350.7492

EPHEMERIS_TYPE = 0
CLASSIFICATION_TYPE = U
NORAD_CAT_ID   = 66235
ELEMENT_SET_NO = 999
REV_AT_EPOCH   = 506
BSTAR          = .23538E-2
MEAN_MOTION_DOT = .94721E-3
MEAN_MOTION_DDOT = 0

CCSDS_OMM_VERS = 2.0
CREATION_DATE  = 
ORIGINATOR     = 

OBJECT_NAME    = STARLINK-35454
OBJECT_ID      = 2025-245C
CENTER_NAME    = EARTH
REF_FRAME      = TEME
TIME_SYSTEM    = UTC
MEAN_ELEMENT_THEORY = SGP/SGP4

EPOCH          = 2025-11-24T04:00:01.998720
MEAN_MOTION    = 15.39545096
ECCENTRICITY   = .0001253
INCLINATION    = 53.1595
RA_OF_ASC_NODE = 57.1503
ARG_OF_PERICENTER = 82.2111
MEAN_ANOMALY   = 26.4360

EPHEMERIS_TYPE = 0
CLASSIFICATION_TYPE = U
NORAD_CAT_ID   = 66236
ELEMENT_SET_NO = 999
REV_AT_EPOCH   = 495
BSTAR          = .21869E-2
MEAN_MOTION_DOT = .87872E-3
MEAN_MOTION_DDOT = 0

CCSDS_OMM_VERS = 2.0
CREATION_DATE  = 
ORIGINATOR     = 

OBJECT_NAME    = STARLINK-35557
OBJECT_ID      = 2025-245D
CENTER_NAME    = EARTH
REF_FRAME      = TEME
TIME_SYSTEM    = UTC
MEAN_ELEMENT_THEORY = SGP/SGP4

EPOCH          = 2025-11-24T04:00:01.998720
MEAN_MOTION    = 15.39545789
ECCENTRICITY   = .0001201
INCLINATION    = 53.1597
RA_OF_ASC_NODE = 57.1464
ARG_OF_PERICENTER = 89.4409
MEAN_ANOMALY   = 21.0379

EPHEMERIS_TYPE = 0
CLASSIFICATION_TYPE = U
NORAD_CAT_ID   = 66237
ELEMENT_SET_NO = 999
REV_AT_EPOCH   = 511
BSTAR          = .21771E-2
MEAN_MOTION_DOT = .87474E-3
MEAN_MOTION_DDOT = 0

CCSDS_OMM_VERS = 2.0
CREATION_DATE  = 
ORIGINATOR     = 

OBJECT_NAME    = STARLINK-35556
OBJECT_ID      = 2025-245E
CENTER_NAME    = EARTH
REF_FRAME      = TEME
TIME_SYSTEM    = UTC
MEAN_ELEMENT_THEORY = SGP/SGP4

EPOCH          = 2025-11-24T04:00:01.998720
MEAN_MOTION    = 15.42766297
ECCENTRICITY   = .0001032
INCLINATION    = 53.1600
RA_OF_ASC_NODE = 57.1053
ARG_OF_PERICENTER = 61.8251
MEAN_ANOMALY   = 68.4362

EPHEMERIS_TYPE = 0
CLASSIFICATION_TYPE = U
NORAD_CAT_ID   = 66238
ELEMENT_SET_NO = 999
REV_AT_EPOCH   = 511
BSTAR          = -.4696E-1
MEAN_MOTION_DOT = -.1873253E-1
MEAN_MOTION_DDOT = 0

CCSDS_OMM_VERS = 2.0
CREATION_DATE  = 
ORIGINATOR     = 

OBJECT_NAME    = STARLINK-35554
OBJECT_ID      = 2025-245F
CENTER_NAME    = EARTH
REF_FRAME      = TEME
TIME_SYSTEM    = UTC
MEAN_ELEMENT_THEORY = SGP/SGP4

EPOCH          = 2025-11-24T04:00:01.998720
MEAN_MOTION    = 15.42707863
ECCENTRICITY   = .000082
INCLINATION    = 53.1602
RA_OF_ASC_NODE = 57.1023
ARG_OF_PERICENTER = 86.4202
MEAN_ANOMALY   = 45.7090

EPHEMERIS_TYPE = 0
CLASSIFICATION_TYPE = U
NORAD_CAT_ID   = 66239
ELEMENT_SET_NO = 999
REV_AT_EPOCH   = 495
BSTAR          = -.43573E-1
MEAN_MOTION_DOT = -.174764E-1
MEAN_MOTION_DDOT = 0

CCSDS_OMM_VERS = 2.0
CREATION_DATE  = 
ORIGINATOR     = 

OBJECT_NAME    = STARLINK-35546
OBJECT_ID      = 2025-245G
CENTER_NAME    = EARTH
REF_FRAME      = TEME
TIME_SYSTEM    = UTC
MEAN_ELEMENT_THEORY = SGP/SGP4

EPOCH          = 2025-11-24T04:00:01.998720
MEAN_MOTION    = 15.45637048
ECCENTRICITY   = .0001272
INCLINATION    = 53.1599
RA_OF_ASC_NODE = 57.0760
ARG_OF_PERICENTER = 72.7826
MEAN_ANOMALY   = 72.7598

EPHEMERIS_TYPE = 0
CLASSIFICATION_TYPE = U
NORAD_CAT_ID   = 66240
ELEMENT_SET_NO = 999
REV_AT_EPOCH   = 511
BSTAR          = -.45767E-1
MEAN_MOTION_DOT = -.199924E-1
MEAN_MOTION_DDOT = 0

CCSDS_OMM_VERS = 2.0
CREATION_DATE  = 
ORIGINATOR     = 

OBJECT_NAME    = STARLINK-35497
OBJECT_ID      = 2025-245H
CENTER_NAME    = EARTH
REF_FRAME      = TEME
TIME_SYSTEM    = UTC
MEAN_ELEMENT_THEORY = SGP/SGP4

EPOCH          = 2025-11-24T04:00:01.998720
MEAN_MOTION    = 15.45630050
ECCENTRICITY   = .0001221
INCLINATION    = 53.1606
RA_OF_ASC_NODE = 57.0728
ARG_OF_PERICENTER = 72.5520
MEAN_ANOMALY   = 74.8733

EPHEMERIS_TYPE = 0
CLASSIFICATION_TYPE = U
NORAD_CAT_ID   = 66241
ELEMENT_SET_NO = 999
REV_AT_EPOCH   = 506
BSTAR          = -.45933E-1
MEAN_MOTION_DOT = -.2005219E-1
MEAN_MOTION_DDOT = 0

CCSDS_OMM_VERS = 2.0
CREATION_DATE  = 
ORIGINATOR     = 

OBJECT_NAME    = STARLINK-35480
OBJECT_ID      = 2025-245J
CENTER_NAME    = EARTH
REF_FRAME      = TEME
TIME_SYSTEM    = UTC
MEAN_ELEMENT_THEORY = SGP/SGP4

EPOCH          = 2025-11-24T00:00:02.000160
MEAN_MOTION    = 15.49326383
ECCENTRICITY   = .0001043
INCLINATION    = 53.1602
RA_OF_ASC_NODE = 57.8476
ARG_OF_PERICENTER = 89.8941
MEAN_ANOMALY   = 218.4840

EPHEMERIS_TYPE = 0
CLASSIFICATION_TYPE = U
NORAD_CAT_ID   = 66242
ELEMENT_SET_NO = 999
REV_AT_EPOCH   = 509
BSTAR          = -.66347E-3
MEAN_MOTION_DOT = -.37195E-3
MEAN_MOTION_DDOT = 0

