STARLINK-35735          
1 66231U 25244AB  25327.55257618  .00063031  00000+0  11309-2 0  9991
2 66231  53.1595   6.1521 0001315  97.2181 262.8977 15.49341756  5361
STARLINK-35753          
1 66232U 25244AC  25327.55223372  .00061114  00000+0  10975-2 0  9990
2 66232  53.1595   6.1502 0001632  82.0264 278.0930 15.49329953  5360
STARLINK-35626          
1 66233U 25244AD  25327.55188921  .00062966  00000+0  11296-2 0  9994
2 66233  53.1597   6.1480 0002041  56.0974 304.0229 15.49345378  5362
STARLINK-35537          
1 66234U 25245A   25328.16668980  .00091814  00000+0  22827-2 0  9998
2 66234  53.1593  57.2036 0001448  89.6149 353.2556 15.39554786  5115
STARLINK-35541          
1 66235U 25245B   25328.16668980  .00094721  00000+0  23538-2 0  9999
2 66235  53.1595  57.1993 0001485  93.9547 350.7492 15.39554148  5067
STARLINK-35454          
1 66236U 25245C   25328.16668980  .00087872  00000+0  21869-2 0  9994
2 66236  53.1595  57.1503 0001253  82.2111  26.4360 15.39545096  4956
STARLINK-35557          
1 66237U 25245D   25328.16668980  .00087474  00000+0  21771-2 0  9995
2 66237  53.1597  57.1464 0001201  89.4409  21.0379 15.39545789  5116
STARLINK-35556          
1 66238U 25245E   25328.16668980 -.01873253  00000+0 -46960-1 0  9993
2 66238  53.1600  57.1053 0001032  61.8251  68.4362 15.42766297  5117
STARLINK-35554          
1 66239U 25245F   25328.16668980 -.01747640  00000+0 -43573-1 0  9991
2 66239  53.1602  57.1023 0000820  86.4202  45.7090 15.42707863  4951
STARLINK-35546          
1 66240U 25245G   25328.16668980 -.01999240  00000+0 -45767-1 0  9995
2 66240  53.1599  57.0760 0001272  72.7826  72.7598 15.45637048  5119
STARLINK-35497          
1 66241U 25245H   25328.16668980 -.02005219  00000+0 -45933-1 0  9996
2 66241  53.1606  57.0728 0001221  72.5520  74.8733 15.45630050  5060
STARLINK-35480          
1 66242U 25245J   25328.00002315 -.00037195  00000+0 -66347-3 0  9994
2 66242  53.1602  57.8476 0001043  89.8941 218.4840 15.49326383  5098
